{
  "type": "FeatureCollection",
  "features": [
    {
      "type": "Feature",
      "properties": {
        "Name": "LowerPark",
        "elevationOffset": 25
      },
      "geometry": {
        "type": "LineString",
        "coordinates": [
          [
            -75.1222902,
            40.0711332
          ],
          [
            -75.122462,
            40.0713961
          ],
          [
            -75.122818,
            40.0715276
          ],
          [
            -75.123763,
            40.0715464
          ],
          [
            -75.1261932,
            40.0719973
          ],
          [
            -75.1262423,
            40.0721569
          ],
          [
            -75.1249536,
            40.0745989
          ],
          [
            -75.1215931,
            40.0715857
          ],
          [
            -75.1222781,
            40.0711321
          ]
        ]
      }
    },
    {
      "type": "Feature",
      "properties": {
        "Name": "ParkLevel",
        "elevationOffset": 0
      },
      "geometry": {
        "type": "LineString",
        "coordinates": [
          [
            -75.122351,
            40.0711619
          ],
          [
            -75.1223561,
            40.0701874
          ],
          [
            -75.1226036,
            40.0699982
          ],
          [
            -75.1264221,
            40.071482
          ],
          [
            -75.1261951,
            40.0719893
          ],
          [
            -75.1237615,
            40.0715584
          ],
          [
            -75.1228352,
            40.0715307
          ],
          [
            -75.1224811,
            40.0713847
          ],
          [
            -75.122351,
            40.0711842
          ]
        ]
      }
    },
    {
      "type": "Feature",
      "properties": {
        "Name": "CreekSide",
        "elevationOffset": 15
      },
      "geometry": {
        "type": "LineString",
        "coordinates": [
          [
            -75.1262891,
            40.0719933
          ],
          [
            -75.1271871,
            40.0716295
          ],
          [
            -75.1272357,
            40.0712869
          ],
          [
            -75.1272854,
            40.0708
          ],
          [
            -75.1273124,
            40.0704512
          ],
          [
            -75.1273666,
            40.0703856
          ],
          [
            -75.1274478,
            40.0708
          ],
          [
            -75.1277418,
            40.0719125
          ],
          [
            -75.1268702,
            40.0722763
          ],
          [
            -75.1263023,
            40.0719933
          ]
        ]
      }
    },
    {
      "type": "Feature",
      "properties": {
        "Name": "TrainStation",
        "elevationOffset": 0
      },
      "geometry": {
        "type": "LineString",
        "coordinates": [
          [
            -75.1278679,
            40.0716366
          ],
          [
            -75.1283508,
            40.0715642
          ],
          [
            -75.1287373,
            40.070736
          ],
          [
            -75.1287726,
            40.0700891
          ],
          [
            -75.1273677,
            40.070391
          ],
          [
            -75.1274623,
            40.0708729
          ],
          [
            -75.1276464,
            40.0715623
          ],
          [
            -75.1278605,
            40.0716366
          ]
        ]
      }
    }
  ]
}